[{"OBJECT_NAME":"KOSAR","OBJECT_ID":"2024-199AL","EPOCH":"2026-03-09T21:51:55.749024","MEAN_MOTION":15.47985172,"ECCENTRICITY":0.00039946,"INCLINATION":97.3118,"RA_OF_ASC_NODE":303.4764,"ARG_OF_PERICENTER":300.8911,"MEAN_ANOMALY":59.1946,"EPHEMERIS_TYPE":0,"CLASSIFICATION_TYPE":"U","NORAD_CAT_ID":61769,"ELEMENT_SET_NO":999,"REV_AT_EPOCH":11903,"BSTAR":0.00063195817,"MEAN_MOTION_DOT":0.00033017,"MEAN_MOTION_DDOT":0},{"OBJECT_NAME":"STARLINK-36693","OBJECT_ID":"2026-026X","EPOCH":"2026-03-09T22:00:01.999584","MEAN_MOTION":15.49113269,"ECCENTRICITY":7.243e-5,"INCLINATION":97.2856,"RA_OF_ASC_NODE":123.4955,"ARG_OF_PERICENTER":94.5259,"MEAN_ANOMALY":100.0824,"EPHEMERIS_TYPE":0,"CLASSIFICATION_TYPE":"U","NORAD_CAT_ID":67742,"ELEMENT_SET_NO":999,"REV_AT_EPOCH":548,"BSTAR":0.0017766358,"MEAN_MOTION_DOT":0.00097481,"MEAN_MOTION_DDOT":0}]
